STARLINK-35346          
1 66179U 25243C   25326.66670139 -.02061782  00000+0 -42592-1 0  9991
2 66179  53.1594  22.7755 0001014  85.2095 225.1915 15.48682175  5356
STARLINK-35335          
1 66180U 25243D   25326.66670139 -.02047801  00000+0 -43773-1 0  9991
2 66180  53.1595  22.7822 0001257  86.4211 221.1828 15.47687322  5353
STARLINK-35342          
1 66181U 25243E   25326.66670139 -.02031027  00000+0 -44342-1 0  9998
2 66181  53.1596  22.7882 0001103  96.1589 208.5800 15.47056509  5353
STARLINK-35333          
1 66182U 25243F   25326.66670139 -.02042053  00000+0 -49293-1 0  9990
2 66182  53.1596  22.8086 0001276  85.7105 208.5756 15.44172571  5300
STARLINK-35310          
1 66183U 25243G   25326.66670139 -.02005626  00000+0 -46347-1 0  9993
2 66183  53.1601  22.8049 0001499  87.2284 209.5434 15.45374703  5417
STARLINK-35317          
1 66184U 25243H   25326.66670139 -.00049045  00000+0 -87865-3 0  9997
2 66184  53.1597  22.8325 0001017  71.6260 212.1120 15.49329977  5358
STARLINK-35377          
1 66185U 25243J   25326.66670139 -.02055205  00000+0 -43947-1 0  9996
2 66185  53.1595  22.8425 0001406  89.6303 189.2149 15.47688629  5419
STARLINK-35365          
1 66186U 25243K   25326.66670139 -.02043316  00000+0 -41010-1 0  9996
2 66186  53.1597  22.8487 0001218  78.9894 197.0705 15.49462679  5352
STARLINK-35350          
1 66187U 25243L   25326.66670139 -.02024534  00000+0 -44971-1 0  9997
2 66187  53.1597  22.8507 0001357  84.8619 190.0992 15.46548094  5355
STARLINK-35041          
1 66188U 25243M   25326.66670139  .00026151  00000+0  47676-3 0  9998
2 66188  53.1594  22.8288 0001088  74.9845 210.6724 15.49304250  5406
STARLINK-34694          
1 66189U 25243N   25326.66670139  .00076617  00000+0  13745-2 0  9990
2 66189  53.1595  22.8207 0001228  75.9232 213.5929 15.49259400  5355
STARLINK-34863          
1 66190U 25243P   25326.66670139 -.01331344  00000+0 -26178-1 0  9999
2 66190  53.1596  22.8356 0000996  80.3732 201.3905 15.49707194  5356
