CCSDS_OMM_VERS = 2.0
CREATION_DATE  = 
ORIGINATOR     = 

OBJECT_NAME    = STARLINK-35346
OBJECT_ID      = 2025-243C
CENTER_NAME    = EARTH
REF_FRAME      = TEME
TIME_SYSTEM    = UTC
MEAN_ELEMENT_THEORY = SGP/SGP4

EPOCH          = 2025-11-22T16:00:03.000096
MEAN_MOTION    = 15.48682175
ECCENTRICITY   = .0001014
INCLINATION    = 53.1594
RA_OF_ASC_NODE = 22.7755
ARG_OF_PERICENTER = 85.2095
MEAN_ANOMALY   = 225.1915

EPHEMERIS_TYPE = 0
CLASSIFICATION_TYPE = U
NORAD_CAT_ID   = 66179
ELEMENT_SET_NO = 999
REV_AT_EPOCH   = 535
BSTAR          = -.42592226E-1
MEAN_MOTION_DOT = -.2061782E-1
MEAN_MOTION_DDOT = 0

CCSDS_OMM_VERS = 2.0
CREATION_DATE  = 
ORIGINATOR     = 

OBJECT_NAME    = STARLINK-35335
OBJECT_ID      = 2025-243D
CENTER_NAME    = EARTH
REF_FRAME      = TEME
TIME_SYSTEM    = UTC
MEAN_ELEMENT_THEORY = SGP/SGP4

EPOCH          = 2025-11-22T16:00:03.000096
MEAN_MOTION    = 15.47687322
ECCENTRICITY   = .00012579
INCLINATION    = 53.1595
RA_OF_ASC_NODE = 22.7822
ARG_OF_PERICENTER = 86.4211
MEAN_ANOMALY   = 221.1828

EPHEMERIS_TYPE = 0
CLASSIFICATION_TYPE = U
NORAD_CAT_ID   = 66180
ELEMENT_SET_NO = 999
REV_AT_EPOCH   = 535
BSTAR          = -.4377312E-1
MEAN_MOTION_DOT = -.2047801E-1
MEAN_MOTION_DDOT = 0

CCSDS_OMM_VERS = 2.0
CREATION_DATE  = 
ORIGINATOR     = 

OBJECT_NAME    = STARLINK-35342
OBJECT_ID      = 2025-243E
CENTER_NAME    = EARTH
REF_FRAME      = TEME
TIME_SYSTEM    = UTC
MEAN_ELEMENT_THEORY = SGP/SGP4

EPOCH          = 2025-11-22T16:00:03.000096
MEAN_MOTION    = 15.47056509
ECCENTRICITY   = .00011034
INCLINATION    = 53.1596
RA_OF_ASC_NODE = 22.7882
ARG_OF_PERICENTER = 96.1589
MEAN_ANOMALY   = 208.5800

EPHEMERIS_TYPE = 0
CLASSIFICATION_TYPE = U
NORAD_CAT_ID   = 66181
ELEMENT_SET_NO = 999
REV_AT_EPOCH   = 535
BSTAR          = -.44342339E-1
MEAN_MOTION_DOT = -.2031027E-1
MEAN_MOTION_DDOT = 0

CCSDS_OMM_VERS = 2.0
CREATION_DATE  = 
ORIGINATOR     = 

OBJECT_NAME    = STARLINK-35333
OBJECT_ID      = 2025-243F
CENTER_NAME    = EARTH
REF_FRAME      = TEME
TIME_SYSTEM    = UTC
MEAN_ELEMENT_THEORY = SGP/SGP4

EPOCH          = 2025-11-22T16:00:03.000096
MEAN_MOTION    = 15.44172571
ECCENTRICITY   = .00012766
INCLINATION    = 53.1596
RA_OF_ASC_NODE = 22.8086
ARG_OF_PERICENTER = 85.7105
MEAN_ANOMALY   = 208.5756

EPHEMERIS_TYPE = 0
CLASSIFICATION_TYPE = U
NORAD_CAT_ID   = 66182
ELEMENT_SET_NO = 999
REV_AT_EPOCH   = 530
BSTAR          = -.49292723E-1
MEAN_MOTION_DOT = -.2042053E-1
MEAN_MOTION_DDOT = 0

CCSDS_OMM_VERS = 2.0
CREATION_DATE  = 
ORIGINATOR     = 

OBJECT_NAME    = STARLINK-35310
OBJECT_ID      = 2025-243G
CENTER_NAME    = EARTH
REF_FRAME      = TEME
TIME_SYSTEM    = UTC
MEAN_ELEMENT_THEORY = SGP/SGP4

EPOCH          = 2025-11-22T16:00:03.000096
MEAN_MOTION    = 15.45374703
ECCENTRICITY   = .0001499
INCLINATION    = 53.1601
RA_OF_ASC_NODE = 22.8049
ARG_OF_PERICENTER = 87.2284
MEAN_ANOMALY   = 209.5434

EPHEMERIS_TYPE = 0
CLASSIFICATION_TYPE = U
NORAD_CAT_ID   = 66183
ELEMENT_SET_NO = 999
REV_AT_EPOCH   = 541
BSTAR          = -.46346572E-1
MEAN_MOTION_DOT = -.2005626E-1
MEAN_MOTION_DDOT = 0

CCSDS_OMM_VERS = 2.0
CREATION_DATE  = 
ORIGINATOR     = 

OBJECT_NAME    = STARLINK-35317
OBJECT_ID      = 2025-243H
CENTER_NAME    = EARTH
REF_FRAME      = TEME
TIME_SYSTEM    = UTC
MEAN_ELEMENT_THEORY = SGP/SGP4

EPOCH          = 2025-11-22T16:00:03.000096
MEAN_MOTION    = 15.49329977
ECCENTRICITY   = .00010176
INCLINATION    = 53.1597
RA_OF_ASC_NODE = 22.8325
ARG_OF_PERICENTER = 71.6260
MEAN_ANOMALY   = 212.1120

EPHEMERIS_TYPE = 0
CLASSIFICATION_TYPE = U
NORAD_CAT_ID   = 66184
ELEMENT_SET_NO = 999
REV_AT_EPOCH   = 535
BSTAR          = -.87864992E-3
MEAN_MOTION_DOT = -.49045E-3
MEAN_MOTION_DDOT = 0

CCSDS_OMM_VERS = 2.0
CREATION_DATE  = 
ORIGINATOR     = 

OBJECT_NAME    = STARLINK-35377
OBJECT_ID      = 2025-243J
CENTER_NAME    = EARTH
REF_FRAME      = TEME
TIME_SYSTEM    = UTC
MEAN_ELEMENT_THEORY = SGP/SGP4

EPOCH          = 2025-11-22T16:00:03.000096
MEAN_MOTION    = 15.47688629
ECCENTRICITY   = .00014061
INCLINATION    = 53.1595
RA_OF_ASC_NODE = 22.8425
ARG_OF_PERICENTER = 89.6303
MEAN_ANOMALY   = 189.2149

EPHEMERIS_TYPE = 0
CLASSIFICATION_TYPE = U
NORAD_CAT_ID   = 66185
ELEMENT_SET_NO = 999
REV_AT_EPOCH   = 541
BSTAR          = -.43946838E-1
MEAN_MOTION_DOT = -.2055205E-1
MEAN_MOTION_DDOT = 0

CCSDS_OMM_VERS = 2.0
CREATION_DATE  = 
ORIGINATOR     = 

OBJECT_NAME    = STARLINK-35365
OBJECT_ID      = 2025-243K
CENTER_NAME    = EARTH
REF_FRAME      = TEME
TIME_SYSTEM    = UTC
MEAN_ELEMENT_THEORY = SGP/SGP4

EPOCH          = 2025-11-22T16:00:03.000096
MEAN_MOTION    = 15.49462679
ECCENTRICITY   = .00012181
INCLINATION    = 53.1597
RA_OF_ASC_NODE = 22.8487
ARG_OF_PERICENTER = 78.9894
MEAN_ANOMALY   = 197.0705

EPHEMERIS_TYPE = 0
CLASSIFICATION_TYPE = U
NORAD_CAT_ID   = 66186
ELEMENT_SET_NO = 999
REV_AT_EPOCH   = 535
BSTAR          = -.41009811E-1
MEAN_MOTION_DOT = -.2043316E-1
MEAN_MOTION_DDOT = 0

CCSDS_OMM_VERS = 2.0
CREATION_DATE  = 
ORIGINATOR     = 

OBJECT_NAME    = STARLINK-35350
OBJECT_ID      = 2025-243L
CENTER_NAME    = EARTH
REF_FRAME      = TEME
TIME_SYSTEM    = UTC
MEAN_ELEMENT_THEORY = SGP/SGP4

EPOCH          = 2025-11-22T16:00:03.000096
MEAN_MOTION    = 15.46548094
ECCENTRICITY   = .00013578
INCLINATION    = 53.1597
RA_OF_ASC_NODE = 22.8507
ARG_OF_PERICENTER = 84.8619
MEAN_ANOMALY   = 190.0992

EPHEMERIS_TYPE = 0
CLASSIFICATION_TYPE = U
NORAD_CAT_ID   = 66187
ELEMENT_SET_NO = 999
REV_AT_EPOCH   = 535
BSTAR          = -.44970682E-1
MEAN_MOTION_DOT = -.2024534E-1
MEAN_MOTION_DDOT = 0

CCSDS_OMM_VERS = 2.0
CREATION_DATE  = 
ORIGINATOR     = 

OBJECT_NAME    = STARLINK-35041
OBJECT_ID      = 2025-243M
CENTER_NAME    = EARTH
REF_FRAME      = TEME
TIME_SYSTEM    = UTC
MEAN_ELEMENT_THEORY = SGP/SGP4

EPOCH          = 2025-11-22T16:00:03.000096
MEAN_MOTION    = 15.49304250
ECCENTRICITY   = .00010882
INCLINATION    = 53.1594
RA_OF_ASC_NODE = 22.8288
ARG_OF_PERICENTER = 74.9845
MEAN_ANOMALY   = 210.6724

EPHEMERIS_TYPE = 0
CLASSIFICATION_TYPE = U
NORAD_CAT_ID   = 66188
ELEMENT_SET_NO = 999
REV_AT_EPOCH   = 540
BSTAR          = .47675674E-3
MEAN_MOTION_DOT = .26151E-3
MEAN_MOTION_DDOT = 0

CCSDS_OMM_VERS = 2.0
CREATION_DATE  = 
ORIGINATOR     = 

OBJECT_NAME    = STARLINK-34694
OBJECT_ID      = 2025-243N
CENTER_NAME    = EARTH
REF_FRAME      = TEME
TIME_SYSTEM    = UTC
MEAN_ELEMENT_THEORY = SGP/SGP4

EPOCH          = 2025-11-22T16:00:03.000096
MEAN_MOTION    = 15.49259400
ECCENTRICITY   = .00012285
INCLINATION    = 53.1595
RA_OF_ASC_NODE = 22.8207
ARG_OF_PERICENTER = 75.9232
MEAN_ANOMALY   = 213.5929

EPHEMERIS_TYPE = 0
CLASSIFICATION_TYPE = U
NORAD_CAT_ID   = 66189
ELEMENT_SET_NO = 999
REV_AT_EPOCH   = 535
BSTAR          = .13745333E-2
MEAN_MOTION_DOT = .76617E-3
MEAN_MOTION_DDOT = 0

CCSDS_OMM_VERS = 2.0
CREATION_DATE  = 
ORIGINATOR     = 

OBJECT_NAME    = STARLINK-34863
OBJECT_ID      = 2025-243P
CENTER_NAME    = EARTH
REF_FRAME      = TEME
TIME_SYSTEM    = UTC
MEAN_ELEMENT_THEORY = SGP/SGP4

EPOCH          = 2025-11-22T16:00:03.000096
MEAN_MOTION    = 15.49707194
ECCENTRICITY   = .0000996
INCLINATION    = 53.1596
RA_OF_ASC_NODE = 22.8356
ARG_OF_PERICENTER = 80.3732
MEAN_ANOMALY   = 201.3905

EPHEMERIS_TYPE = 0
CLASSIFICATION_TYPE = U
NORAD_CAT_ID   = 66190
ELEMENT_SET_NO = 999
REV_AT_EPOCH   = 535
BSTAR          = -.26178349E-1
MEAN_MOTION_DOT = -.1331344E-1
MEAN_MOTION_DDOT = 0

